     2.100          NAVIGATION                              RINEX VERSION / TYPE
fic2rin                                 10/14/2016 00:06:30 PGM / RUN BY / DATE
                                                            END OF HEADER
15 16 10 13  2  0  0.0 -.330653507262D-03 -.136424205266D-11  .000000000000D+00
     .590000000000D+02  .728125000000D+02  .556416034104D-08  .305703943378D+01
     .375322997570D-05  .858858786523D-02  .648573040962D-05  .515368080711D+04
     .352800000000D+06 -.540167093277D-07 -.264220295783D+01 -.100582838058D-06
     .930380958079D+00  .241093750000D+03  .513366573081D+00 -.850714007082D-08
     .478234206089D-09  .100000000000D+01  .191800000000D+04  .000000000000D+00
     .240000000000D+01  .000000000000D+00 -.107102096081D-07  .590000000000D+02
     .345606000000D+06  .400000000000D+01
17 16 10 13  2  0  0.0 -.201123300940D-03  .454747350886D-12  .000000000000D+00
     .930000000000D+02  .551250000000D+02  .423517641210D-08 -.249843635425D+01
     .294670462608D-05  .112757303286D-01  .487267971039D-05  .515375565529D+04
     .352800000000D+06  .128522515297D-06  .609994351525D+00 -.316649675369D-07
     .977820630863D+00  .295437500000D+03 -.192004022131D+01 -.793818780024D-08
     .383587406527D-09  .100000000000D+01  .191800000000D+04  .000000000000D+00
     .340000000000D+01  .000000000000D+00 -.107102096081D-07  .930000000000D+02
     .345606000000D+06  .400000000000D+01
18 16 10 13  2  0  0.0  .566451810300D-03  .352429196937D-11  .000000000000D+00
     .490000000000D+02 -.116875000000D+02  .515985778593D-08 -.922495861815D+00
    -.379979610443D-06  .172615338815D-01  .132378190756D-04  .515372971725D+04
     .352800000000D+06 -.145286321640D-06  .262138951908D+01  .361353158951D-06
     .925476237023D+00  .109843750000D+03 -.185682616474D+01 -.853964142463D-08
     .154292141173D-09  .100000000000D+01  .191800000000D+04  .000000000000D+00
     .240000000000D+01  .000000000000D+00 -.111758708954D-07  .490000000000D+02
     .345606000000D+06  .400000000000D+01
19 16 10 13  2  0  0.0 -.521809328347D-03  .568434188608D-12  .000000000000D+00
     .620000000000D+02  .500312500000D+02  .435875298813D-08  .637686295040D+00
     .281259417534D-05  .104232167359D-01  .491179525852D-05  .515362935829D+04
     .352800000000D+06 -.178813934326D-06  .658389143042D+00  .111758708954D-06
     .974938791965D+00  .294656250000D+03  .876405147255D+00 -.829213111483D-08
     .211080220910D-09  .100000000000D+01  .191800000000D+04  .000000000000D+00
     .240000000000D+01  .000000000000D+00 -.149011611938D-07  .620000000000D+02
     .345606000000D+06  .400000000000D+01
20 16 10 13  2  0  0.0  .440510921180D-03  .193267624127D-11  .000000000000D+00
     .600000000000D+02 -.251562500000D+02  .497199281774D-08  .292498021541D+01
    -.151060521603D-05  .470461114310D-02  .131409615278D-04  .515360358429D+04
     .352800000000D+06  .186264514923D-07  .256978373063D+01  .186264514923D-08
     .926744598701D+00  .106968750000D+03  .146197823925D+01 -.815033949435D-08
     .707172313708D-10  .100000000000D+01  .191800000000D+04  .000000000000D+00
     .240000000000D+01  .000000000000D+00 -.838190317154D-08  .600000000000D+02
     .345606000000D+06  .400000000000D+01
22 16 10 13  2  0  0.0  .220206100494D-03 -.103455022327D-10  .000000000000D+00
     .310000000000D+02 -.271562500000D+02  .507878298027D-08 -.299178855052D+01
    -.163726508617D-05  .738715531770D-02  .124815851450D-04  .515371034813D+04
     .352800000000D+06  .134110450745D-06  .262174246123D+01 -.428408384323D-07
     .923430752780D+00  .118218750000D+03 -.185938933912D+01 -.812426697976D-08
     .123219418298D-09  .100000000000D+01  .191800000000D+04  .000000000000D+00
     .240000000000D+01  .000000000000D+00 -.176951289177D-07  .310000000000D+02
     .345606000000D+06  .400000000000D+01
23 16 10 13  2  0  0.0 -.193161889911D-03 -.125055521494D-11  .000000000000D+00
     .113000000000D+03  .710937500000D+02  .523628954105D-08  .253983105057D+01
     .364705920219D-05  .111371560488D-01  .648386776447D-05  .515359905815D+04
     .352800000000D+06 -.149011611938D-06 -.258228109161D+01 -.186264514923D-06
     .945560905584D+00  .248750000000D+03 -.252714905616D+01 -.832677541505D-08
     .499306512406D-09  .100000000000D+01  .191800000000D+04  .000000000000D+00
     .340000000000D+01  .000000000000D+00 -.200234353542D-07  .113000000000D+03
     .345606000000D+06  .400000000000D+01
24 16 10 13  2  0  0.0 -.244998373091D-04 -.568434188608D-12  .000000000000D+00
     .150000000000D+02 -.411875000000D+02  .526807657939D-08  .198831326658D+01
    -.210851430893D-05  .478195515461D-02  .586546957493D-05  .515371984482D+04
     .352800000000D+06 -.143423676491D-06 -.155694744164D+01  .150874257088D-06
     .947576143996D+00  .258937500000D+03  .391019228960D+00 -.852785521940D-08
    -.420374653149D-09  .100000000000D+01  .191800000000D+04  .000000000000D+00
     .240000000000D+01  .000000000000D+00  .232830643654D-08  .150000000000D+02
     .345606000000D+06  .400000000000D+01
25 16 10 13  2  0  0.0 -.262577086687D-03 -.693489710102D-11  .000000000000D+00
     .270000000000D+02  .321875000000D+02  .391552023999D-08 -.118047503118D+00
     .159069895744D-05  .561681855470D-02  .124257057905D-04  .515369744873D+04
     .352800000000D+06  .298023223877D-07 -.480647392047D+00  .577419996262D-07
     .978402859092D+00  .147093750000D+03  .775369129968D+00 -.785925594098D-08
    -.151792037033D-09  .100000000000D+01  .191800000000D+04  .000000000000D+00
     .240000000000D+01  .000000000000D+00  .558793544769D-08  .270000000000D+02
     .345606000000D+06  .400000000000D+01
26 16 10 13  2  0  0.0 -.485737342387D-03 -.602540239925D-11  .000000000000D+00
     .890000000000D+02  .173750000000D+02  .420910389750D-08 -.509795116064D+00
     .879168510437D-06  .106850219890D-02  .132489949465D-04  .515360058022D+04
     .352800000000D+06  .353902578354D-07 -.492057465494D+00 -.223517417908D-07
     .960290484982D+00  .125906250000D+03 -.157452957085D+00 -.790247202682D-08
    -.170721396946D-09  .100000000000D+01  .191800000000D+04  .000000000000D+00
     .240000000000D+01  .000000000000D+00  .698491930962D-08  .890000000000D+02
     .345606000000D+06  .400000000000D+01
27 16 10 13  2  0  0.0  .151157379150D-03  .500222085975D-11  .000000000000D+00
     .960000000000D+02  .709062500000D+02  .441946980294D-08 -.245399918330D+01
     .372715294361D-05  .384855153970D-02  .536255538464D-05  .515364964294D+04
     .352800000000D+06 -.447034835815D-07  .559302430448D+00 -.391155481339D-07
     .972792246416D+00  .282218750000D+03  .336055635369D+00 -.821462788651D-08
     .422874757288D-09  .100000000000D+01  .191800000000D+04  .000000000000D+00
     .240000000000D+01  .000000000000D+00  .186264514923D-08  .960000000000D+02
     .345606000000D+06  .400000000000D+01
28 16 10 13  2  0  0.0  .558885745704D-03  .284217094304D-11  .000000000000D+00
     .400000000000D+02  .290625000000D+02  .356979155329D-08 -.161323543398D+01
     .164844095707D-05  .199554424034D-01  .117160379887D-04  .515363898659D+04
     .352800000000D+06  .149011611938D-06 -.404510015180D+00  .482425093651D-06
     .989571643220D+00  .170250000000D+03 -.160896680287D+01 -.752709924818D-08
    -.146077513286D-09  .100000000000D+01  .191800000000D+04  .000000000000D+00
     .240000000000D+01  .000000000000D+00 -.107102096081D-07  .400000000000D+02
     .345606000000D+06  .400000000000D+01
29 16 10 13  2  0  0.0  .647841021419D-03 -.147792889038D-11  .000000000000D+00
     .170000000000D+02  .551250000000D+02  .440554065131D-08 -.450345051159D+00
     .279955565929D-05  .509983394295D-03  .476650893688D-05  .515373261261D+04
     .352800000000D+06  .260770320892D-07  .619859428410D+00 -.409781932831D-07
     .978835364970D+00  .298875000000D+03  .720522161669D-01 -.825748681461D-08
     .298226708054D-09  .100000000000D+01  .191800000000D+04  .000000000000D+00
     .240000000000D+01  .000000000000D+00 -.102445483208D-07  .170000000000D+02
     .345606000000D+06  .400000000000D+01
30 16 10 13  2  0  0.0  .153883360326D-03  .125055521494D-11  .000000000000D+00
     .260000000000D+02 -.546875000000D+02  .511485591142D-08  .102240949178D+01
    -.279210507870D-05  .239297049120D-02  .616908073425D-05  .515376020813D+04
     .352800000000D+06 -.372529029846D-08 -.146516815553D+01 -.614672899246D-07
     .950294996264D+00  .252093750000D+03 -.311887782509D+01 -.850714007082D-08
    -.520735976458D-09  .100000000000D+01  .191800000000D+04  .000000000000D+00
     .240000000000D+01  .000000000000D+00  .372529029846D-08  .260000000000D+02
     .345606000000D+06  .400000000000D+01
31 16 10 13  2  0  0.0  .242807436734D-03 -.216004991671D-11  .000000000000D+00
     .710000000000D+02 -.538125000000D+02  .472305387701D-08  .866005517177D+00
    -.285170972347D-05  .838235451374D-02  .615045428276D-05  .515356511879D+04
     .352800000000D+06  .189989805222D-06 -.149739091726D+01 -.931322574615D-08
     .969307857894D+00  .261625000000D+03 -.373945397950D+00 -.828284501374D-08
    -.595381942905D-09  .100000000000D+01  .191800000000D+04  .000000000000D+00
     .240000000000D+01  .000000000000D+00 -.135041773319D-07  .710000000000D+02
     .345606000000D+06  .400000000000D+01
32 16 10 13  2  0  0.0 -.152032356709D-03 -.156887836056D-10  .000000000000D+00
     .810000000000D+02  .675000000000D+02  .497520723735D-08 -.197204470029D+01
     .355578958988D-05  .628802459687D-03  .640936195850D-05  .515364957809D+04
     .352800000000D+06  .335276126862D-07 -.258413898879D+01  .149011611938D-07
     .959212592312D+00  .254906250000D+03 -.241340781480D+01 -.835677666472D-08
     .480734310228D-09  .100000000000D+01  .191800000000D+04  .000000000000D+00
     .240000000000D+01  .000000000000D+00  .931322574615D-09  .810000000000D+02
     .345606000000D+06  .400000000000D+01
